[{"OBJECT_NAME":"KUIPER-00102","OBJECT_ID":"2025-171J","EPOCH":"2026-03-09T11:30:56.364192","MEAN_MOTION":14.80054819,"ECCENTRICITY":5.281e-5,"INCLINATION":51.8972,"RA_OF_ASC_NODE":154.0024,"ARG_OF_PERICENTER":76.7277,"MEAN_ANOMALY":283.3744,"EPHEMERIS_TYPE":0,"CLASSIFICATION_TYPE":"U","NORAD_CAT_ID":65140,"ELEMENT_SET_NO":999,"REV_AT_EPOCH":3292,"BSTAR":0.00078622756,"MEAN_MOTION_DOT":5.795e-5,"MEAN_MOTION_DDOT":0},{"OBJECT_NAME":"COSMOS 2251 DEB","OBJECT_ID":"1993-036APC","EPOCH":"2026-03-07T07:06:21.229920","MEAN_MOTION":14.8796969,"ECCENTRICITY":0.0085938,"INCLINATION":74.0103,"RA_OF_ASC_NODE":270.9975,"ARG_OF_PERICENTER":352.1798,"MEAN_ANOMALY":7.8035,"EPHEMERIS_TYPE":0,"CLASSIFICATION_TYPE":"U","NORAD_CAT_ID":35661,"ELEMENT_SET_NO":999,"REV_AT_EPOCH":89125,"BSTAR":0.00081888,"MEAN_MOTION_DOT":8.012e-5,"MEAN_MOTION_DDOT":0}]
